start=new Date('2021-09-14T00:00:00.000Z').valueOf();
sats=[{"OBJECT_ID":"2021-024BC","NORAD_CAT_ID":"48027","CENTER_NAME":"EARTH","MEAN_MOTION_DDOT":"0.0000000000000","ELEMENT_SET_NO":"999","COUNTRY_CODE":"US","RA_OF_ASC_NODE":"103.8608","ARG_OF_PERICENTER":"74.1428","FILE":"3115005","MEAN_MOTION_DOT":"0.00005262","REF_FRAME":"TEME","SEMIMAJOR_AXIS":"6925.402","EPHEMERIS_TYPE":"0","MEAN_ANOMALY":"77.8866","INCLINATION":"53.0539","TLE_LINE1":"1 48027U 21024BC  21256.91668981  .00005262  00000-0  37207-3 0  9991","SITE":"AFETR","PERIOD":"95.593","CLASSIFICATION_TYPE":"U","BSTAR":"0.00037207000000","LAUNCH_DATE":"2021-03-24","TLE_LINE2":"2 48027  53.0539 103.8608 0001869  74.1428  77.8866 15.06382682  3606","ECCENTRICITY":"0.00018690","APOAPSIS":"548.561","MEAN_MOTION":"15.06382682","RCS_SIZE":"LARGE","EPOCH":"2021-09-13T22:00:01.999584","DECAY_DATE":null,"MEAN_ELEMENT_THEORY":"SGP4","PERIAPSIS":"545.972","OBJECT_TYPE":"PAYLOAD","GP_ID":"184662848","OBJECT_NAME":"STARLINK-2300","TIME_SYSTEM":"UTC","REV_AT_EPOCH":"360"},{"ECCENTRICITY":"0.00012970","TLE_LINE2":"2 48028  53.0440  62.5793 0001297  51.6578 291.6829 15.52476388  3710","APOAPSIS":"410.381","MEAN_MOTION":"15.52476388","DECAY_DATE":null,"RCS_SIZE":"LARGE","EPOCH":"2021-09-13T22:00:01.999584","MEAN_ELEMENT_THEORY":"SGP4","GP_ID":"184663098","OBJECT_TYPE":"PAYLOAD","PERIAPSIS":"408.620","REV_AT_EPOCH":"371","TIME_SYSTEM":"UTC","OBJECT_NAME":"STARLINK-2264","OBJECT_ID":"2021-024BD","CENTER_NAME":"EARTH","NORAD_CAT_ID":"48028","COUNTRY_CODE":"US","RA_OF_ASC_NODE":"62.5793","ELEMENT_SET_NO":"999","MEAN_MOTION_DDOT":"0.0000000000000","FILE":"3115005","ARG_OF_PERICENTER":"51.6578","MEAN_MOTION_DOT":"-0.00955067","MEAN_ANOMALY":"291.6829","EPHEMERIS_TYPE":"0","SEMIMAJOR_AXIS":"6787.635","REF_FRAME":"TEME","SITE":"AFETR","TLE_LINE1":"1 48028U 21024BD  21256.91668981 -.00955067  00000-0 -16718-1 0  9993","INCLINATION":"53.0440","LAUNCH_DATE":"2021-03-24","BSTAR":"-0.01671800000000","CLASSIFICATION_TYPE":"U","PERIOD":"92.755"},{"LAUNCH_DATE":"2021-03-24","BSTAR":"-0.00072798000000","CLASSIFICATION_TYPE":"U","PERIOD":"95.592","SITE":"AFETR","TLE_LINE1":"1 48029U 21024BE  21256.91668981 -.00011110  00000-0 -72798-3 0  9998","INCLINATION":"53.0550","EPHEMERIS_TYPE":"0","MEAN_ANOMALY":"227.8328","SEMIMAJOR_AXIS":"6925.340","REF_FRAME":"TEME","MEAN_MOTION_DOT":"-0.00011110","ARG_OF_PERICENTER":"74.2179","FILE":"3115005","RA_OF_ASC_NODE":"123.8681","COUNTRY_CODE":"US","ELEMENT_SET_NO":"999","MEAN_MOTION_DDOT":"0.0000000000000","CENTER_NAME":"EARTH","NORAD_CAT_ID":"48029","OBJECT_ID":"2021-024BE","REV_AT_EPOCH":"359","TIME_SYSTEM":"UTC","OBJECT_NAME":"STARLINK-2299","GP_ID":"184663850","OBJECT_TYPE":"PAYLOAD","PERIAPSIS":"545.631","MEAN_ELEMENT_THEORY":"SGP4","DECAY_DATE":null,"EPOCH":"2021-09-13T22:00:01.999584","RCS_SIZE":"LARGE","MEAN_MOTION":"15.06402658","APOAPSIS":"548.780","ECCENTRICITY":"0.00022740","TLE_LINE2":"2 48029  53.0550 123.8681 0002274  74.2179 227.8328 15.06402658  3593"},{"REF_FRAME":"TEME","SEMIMAJOR_AXIS":"6925.379","MEAN_ANOMALY":"68.1807","EPHEMERIS_TYPE":"0","MEAN_MOTION_DOT":"-0.00016643","PERIOD":"95.593","CLASSIFICATION_TYPE":"U","LAUNCH_DATE":"2021-03-24","BSTAR":"-0.00110130000000","INCLINATION":"53.0527","TLE_LINE1":"1 48030U 21024BF  21256.91668981 -.00016643  00000-0 -11013-2 0  9998","SITE":"AFETR","NORAD_CAT_ID":"48030","CENTER_NAME":"EARTH","OBJECT_ID":"2021-024BF","FILE":"3115005","ARG_OF_PERICENTER":"86.3530","MEAN_MOTION_DDOT":"0.0000000000000","ELEMENT_SET_NO":"999","RA_OF_ASC_NODE":"128.8561","COUNTRY_CODE":"US","MEAN_ELEMENT_THEORY":"SGP4","RCS_SIZE":"LARGE","EPOCH":"2021-09-13T22:00:01.999584","DECAY_DATE":null,"OBJECT_NAME":"STARLINK-2268","TIME_SYSTEM":"UTC","REV_AT_EPOCH":"361","PERIAPSIS":"546.031","OBJECT_TYPE":"PAYLOAD","GP_ID":"184664584","TLE_LINE2":"2 48030  53.0527 128.8561 0001752  86.3530  68.1807 15.06390071  3612","ECCENTRICITY":"0.00017520","MEAN_MOTION":"15.06390071","APOAPSIS":"548.457"},{"MEAN_ANOMALY":"1.5746","EPHEMERIS_TYPE":"0","REF_FRAME":"TEME","SEMIMAJOR_AXIS":"6727.757","MEAN_MOTION_DOT":"-0.00017306","BSTAR":"-0.00011876000000","LAUNCH_DATE":"2021-03-24","CLASSIFICATION_TYPE":"U","PERIOD":"91.530","SITE":"AFETR","TLE_LINE1":"1 48031U 21024BG  21256.91668981 -.00017306  00000-0 -11876-3 0  9994","INCLINATION":"53.0456","CENTER_NAME":"EARTH","NORAD_CAT_ID":"48031","OBJECT_ID":"2021-024BG","ARG_OF_PERICENTER":"0.3796","FILE":"3115005","COUNTRY_CODE":"US","RA_OF_ASC_NODE":"61.8972","ELEMENT_SET_NO":"999","MEAN_MOTION_DDOT":"0.0000000000000","MEAN_ELEMENT_THEORY":"SGP4","DECAY_DATE":null,"RCS_SIZE":"LARGE","EPOCH":"2021-09-13T22:00:01.999584","REV_AT_EPOCH":"371","TIME_SYSTEM":"UTC","OBJECT_NAME":"STARLINK-2267","GP_ID":"184663349","OBJECT_TYPE":"PAYLOAD","PERIAPSIS":"346.733","ECCENTRICITY":"0.00042940","TLE_LINE2":"2 48031  53.0456  61.8972 0004294   0.3796   1.5746 15.73248590  3716","MEAN_MOTION":"15.73248590","APOAPSIS":"352.511"},{"GP_ID":"184663599","OBJECT_TYPE":"PAYLOAD","PERIAPSIS":"346.953","REV_AT_EPOCH":"371","TIME_SYSTEM":"UTC","OBJECT_NAME":"STARLINK-2297","DECAY_DATE":null,"RCS_SIZE":"LARGE","EPOCH":"2021-09-13T22:00:01.999584","MEAN_ELEMENT_THEORY":"SGP4","APOAPSIS":"352.566","MEAN_MOTION":"15.73200189","ECCENTRICITY":"0.00041710","TLE_LINE2":"2 48032  53.0455  61.8932 0004171   7.1124 355.6226 15.73200189  3714","SITE":"AFETR","TLE_LINE1":"1 48032U 21024BH  21256.91668981 -.00007984  00000-0 -52441-4 0  9990","INCLINATION":"53.0455","BSTAR":"-0.00005244100000","LAUNCH_DATE":"2021-03-24","CLASSIFICATION_TYPE":"U","PERIOD":"91.533","MEAN_MOTION_DOT":"-0.00007984","EPHEMERIS_TYPE":"0","MEAN_ANOMALY":"355.6226","SEMIMAJOR_AXIS":"6727.895","REF_FRAME":"TEME","RA_OF_ASC_NODE":"61.8932","COUNTRY_CODE":"US","ELEMENT_SET_NO":"999","MEAN_MOTION_DDOT":"0.0000000000000","FILE":"3115005","ARG_OF_PERICENTER":"7.1124","OBJECT_ID":"2021-024BH","CENTER_NAME":"EARTH","NORAD_CAT_ID":"48032"},{"MEAN_MOTION_DOT":"-0.00011497","REF_FRAME":"TEME","SEMIMAJOR_AXIS":"6925.381","MEAN_ANOMALY":"234.1640","EPHEMERIS_TYPE":"0","TLE_LINE1":"1 48033U 21024BJ  21256.91668981 -.00011497  00000-0 -75436-3 0  9993","SITE":"AFETR","INCLINATION":"53.0546","BSTAR":"-0.00075436000000","LAUNCH_DATE":"2021-03-24","CLASSIFICATION_TYPE":"U","PERIOD":"95.593","OBJECT_ID":"2021-024BJ","CENTER_NAME":"EARTH","NORAD_CAT_ID":"48033","ELEMENT_SET_NO":"999","RA_OF_ASC_NODE":"123.8766","COUNTRY_CODE":"US","MEAN_MOTION_DDOT":"0.0000000000000","FILE":"3115005","ARG_OF_PERICENTER":"72.9892","RCS_SIZE":"LARGE","EPOCH":"2021-09-13T22:00:01.999584","DECAY_DATE":null,"MEAN_ELEMENT_THEORY":"SGP4","GP_ID":"184664351","PERIAPSIS":"545.747","OBJECT_TYPE":"PAYLOAD","REV_AT_EPOCH":"360","OBJECT_NAME":"STARLINK-2286","TIME_SYSTEM":"UTC","ECCENTRICITY":"0.00021640","TLE_LINE2":"2 48033  53.0546 123.8766 0002164  72.9892 234.1640 15.06389521  3605","APOAPSIS":"548.744","MEAN_MOTION":"15.06389521"},{"MEAN_ELEMENT_THEORY":"SGP4","DECAY_DATE":null,"RCS_SIZE":"LARGE","EPOCH":"2021-09-13T22:00:01.999584","TIME_SYSTEM":"UTC","OBJECT_NAME":"STARLINK-2288","REV_AT_EPOCH":"360","OBJECT_TYPE":"PAYLOAD","PERIAPSIS":"545.947","GP_ID":"184664084","TLE_LINE2":"2 48034  53.0545 123.8642 0001890  75.8994 186.1291 15.06386301  3609","ECCENTRICITY":"0.00018900","MEAN_MOTION":"15.06386301","APOAPSIS":"548.564","EPHEMERIS_TYPE":"0","MEAN_ANOMALY":"186.1291","REF_FRAME":"TEME","SEMIMAJOR_AXIS":"6925.391","MEAN_MOTION_DOT":"-0.00010281","PERIOD":"95.593","CLASSIFICATION_TYPE":"U","BSTAR":"-0.00067254000000","LAUNCH_DATE":"2021-03-24","INCLINATION":"53.0545","SITE":"AFETR","TLE_LINE1":"1 48034U 21024BK  21256.91668981 -.00010281  00000-0 -67254-3 0  9993","NORAD_CAT_ID":"48034","CENTER_NAME":"EARTH","OBJECT_ID":"2021-024BK","FILE":"3115005","ARG_OF_PERICENTER":"75.8994","MEAN_MOTION_DDOT":"0.0000000000000","RA_OF_ASC_NODE":"123.8642","COUNTRY_CODE":"US","ELEMENT_SET_NO":"999"},{"LAUNCH_DATE":"2021-03-24","BSTAR":"0.00062843000000","CLASSIFICATION_TYPE":"U","PERIOD":"91.533","TLE_LINE1":"1 48035U 21024BL  21256.91668981  .00088545  00000-0  62843-3 0  9999","SITE":"AFETR","INCLINATION":"53.0457","SEMIMAJOR_AXIS":"6727.905","REF_FRAME":"TEME","MEAN_ANOMALY":"16.5096","EPHEMERIS_TYPE":"0","MEAN_MOTION_DOT":"0.00088545","ARG_OF_PERICENTER":"347.9444","FILE":"3114860","ELEMENT_SET_NO":"999","COUNTRY_CODE":"US","RA_OF_ASC_NODE":"61.8942","MEAN_MOTION_DDOT":"0.0000000000000","CENTER_NAME":"EARTH","NORAD_CAT_ID":"48035","OBJECT_ID":"2021-024BL","REV_AT_EPOCH":"2811","OBJECT_NAME":"STARLINK-2287","TIME_SYSTEM":"UTC","GP_ID":"184638975","PERIAPSIS":"346.935","OBJECT_TYPE":"PAYLOAD","MEAN_ELEMENT_THEORY":"SGP4","RCS_SIZE":"MEDIUM","EPOCH":"2021-09-13T22:00:01.999584","DECAY_DATE":null,"MEAN_MOTION":"15.73196487","APOAPSIS":"352.605","ECCENTRICITY":"0.00042140","TLE_LINE2":"2 48035  53.0457  61.8942 0004214 347.9444  16.5096 15.73196487 28112"},{"APOAPSIS":"548.461","MEAN_MOTION":"15.06396646","TLE_LINE2":"2 48036  53.0548 123.8696 0001786  94.5736 127.4244 15.06396646  3619","ECCENTRICITY":"0.00017860","PERIAPSIS":"545.987","OBJECT_TYPE":"PAYLOAD","GP_ID":"184663099","OBJECT_NAME":"STARLINK-2295","TIME_SYSTEM":"UTC","REV_AT_EPOCH":"361","EPOCH":"2021-09-13T22:00:01.999584","RCS_SIZE":"LARGE","DECAY_DATE":null,"MEAN_ELEMENT_THEORY":"SGP4","MEAN_MOTION_DDOT":"0.0000000000000","ELEMENT_SET_NO":"999","COUNTRY_CODE":"US","RA_OF_ASC_NODE":"123.8696","ARG_OF_PERICENTER":"94.5736","FILE":"3115005","OBJECT_ID":"2021-024BM","NORAD_CAT_ID":"48036","CENTER_NAME":"EARTH","INCLINATION":"53.0548","TLE_LINE1":"1 48036U 21024BM  21256.91668981 -.00009769  00000-0 -63788-3 0  9992","SITE":"AFETR","CLASSIFICATION_TYPE":"U","PERIOD":"95.592","BSTAR":"-0.00063788000000","LAUNCH_DATE":"2021-03-24","MEAN_MOTION_DOT":"-0.00009769","REF_FRAME":"TEME","SEMIMAJOR_AXIS":"6925.359","EPHEMERIS_TYPE":"0","MEAN_ANOMALY":"127.4244"}];
